{
    "links": {
        "self": "http://www.neowsapp.com/rest/v1/neo/3384187?api_key=iIulBulltgU6a56xZRHN4H3l9WmuAYTsLGpBGhQ2"
    },
    "id": "3384187",
    "neo_reference_id": "3384187",
    "name": "(2007 RV12)",
    "designation": "2007 RV12",
    "nasa_jpl_url": "http://ssd.jpl.nasa.gov/sbdb.cgi?sstr=3384187",
    "absolute_magnitude_h": 25.6,
    "estimated_diameter": {
        "kilometers": {
            "estimated_diameter_min": 0.0201629919,
            "estimated_diameter_max": 0.0450858206
        },
        "meters": {
            "estimated_diameter_min": 20.1629919443,
            "estimated_diameter_max": 45.0858206172
        },
        "miles": {
            "estimated_diameter_min": 0.0125286985,
            "estimated_diameter_max": 0.0280150214
        },
        "feet": {
            "estimated_diameter_min": 66.1515504905,
            "estimated_diameter_max": 147.9193637137
        }
    },
    "is_potentially_hazardous_asteroid": false,
    "close_approach_data": [
        {
            "close_approach_date": "2007-09-07",
            "close_approach_date_full": "2007-Sep-07 01:04",
            "epoch_date_close_approach": 1189127040000,
            "relative_velocity": {
                "kilometers_per_second": "5.7327367467",
                "kilometers_per_hour": "20637.8522882062",
                "miles_per_hour": "12823.5588287468"
            },
            "miss_distance": {
                "astronomical": "0.0147535183",
                "lunar": "5.7391186187",
                "kilometers": "2207094.912686021",
                "miles": "1371425.1849122498"
            },
            "orbiting_body": "Earth"
        }
    ],
    "orbital_data": {
        "orbit_id": "10",
        "orbit_determination_date": "2017-04-06 09:06:03",
        "first_observation_date": "2007-09-12",
        "last_observation_date": "2007-10-13",
        "data_arc_in_days": 31,
        "observations_used": 29,
        "orbit_uncertainty": "7",
        "minimum_orbit_intersection": ".0145248",
        "jupiter_tisserand_invariant": "4.161",
        "epoch_osculation": "2459000.5",
        "eccentricity": ".3891482106364018",
        "semi_major_axis": "1.667310161310797",
        "inclination": "4.012750310380679",
        "ascending_node_longitude": "163.3171984809858",
        "orbital_period": "786.362912097503",
        "perihelion_distance": "1.01847939546081",
        "perihelion_argument": "190.1312137226127",
        "aphelion_distance": "2.316140927160784",
        "perihelion_time": "2459076.308811733589",
        "mean_anomaly": "325.2944311026864",
        "mean_motion": ".4578038898601601",
        "equinox": "J2000",
        "orbit_class": {
            "orbit_class_type": "AMO",
            "orbit_class_description": "Near-Earth asteroid orbits similar to that of 1221 Amor",
            "orbit_class_range": "1.017 AU < q (perihelion) < 1.3 AU"
        }
    },
    "is_sentry_object": false
}